{"type": "FeatureCollection", "features": [ {"type": "Feature", "properties": {"norad_id": 41836, "name": "HIMAWARI-9", "group": "weather", "lat": 0.0124865175205915, "lon": 49.46967342764338, "alt_km": 35784.61575290508, "timestamp": "2025-12-25T11:37:44.064852+00:00", "meta": {"OBJECT_NAME": "HIMAWARI-9", "OBJECT_ID": "2016-064A", "EPOCH": "2025-12-23T22:52:38.784288", "MEAN_MOTION": 1.00271828, "ECCENTRICITY": 0.00016373, "INCLINATION": 0.0175, "RA_OF_ASC_NODE": 40.3208, "ARG_OF_PERICENTER": 292.8784, "MEAN_ANOMALY": 243.4785, "EPHEMERIS_TYPE": 0, "CLASSIFICATION_TYPE": "U", "NORAD_CAT_ID": 41836, "ELEMENT_SET_NO": 999, "REV_AT_EPOCH": 3345, "BSTAR": 0, "MEAN_MOTION_DOT": 0, "MEAN_MOTION_DDOT": 0}, "tle": {"line1": "1 41836U 16064A   25357.95322667  .00000000  00000+0  00000+0 0  9999", "line2": "2 41836   0.0175  40.3208 0001637 292.8784 243.4785  1.00271828 33458"}}, "geometry": {"type": "Point", "coordinates": [49.46967342764338, 0.0124865175205915]}}, {"type": "Feature", "properties": {"norad_id": 41866, "name": "GOES 16", "group": "weather", "lat": 0.07550199991370825, "lon": 163.98102298179015, "alt_km": 35789.297589560105, "timestamp": "2025-12-25T11:37:44.064865+00:00", "meta": {"OBJECT_NAME": "GOES 16", "OBJECT_ID": "2016-071A", "EPOCH": "2025-12-24T12:07:46.794144", "MEAN_MOTION": 1.00273928, "ECCENTRICITY": 0.00030223, "INCLINATION": 0.0751, "RA_OF_ASC_NODE": 101.9123, "ARG_OF_PERICENTER": 169.4084, "MEAN_ANOMALY": 259.2386, "EPHEMERIS_TYPE": 0, "CLASSIFICATION_TYPE": "U", "NORAD_CAT_ID": 41866, "ELEMENT_SET_NO": 999, "REV_AT_EPOCH": 3335, "BSTAR": 0, "MEAN_MOTION_DOT": -7e-07, "MEAN_MOTION_DDOT": 0}, "tle": {"line1": "1 41866U 16071A   25358.50540271 -.00000070  00000+0  00000+0 0  9993", "line2": "2 41866   0.0751 101.9123 0003022 169.4084 259.2386  1.00273928 33357"}}, "geometry": {"type": "Point", "coordinates": [163.98102298179015, 0.07550199991370825]}}, {"type": "Feature", "properties": {"norad_id": 41882, "name": "FENGYUN 4A", "group": "weather", "lat": -1.4336069133831357, "lon": 32.29912663696236, "alt_km": 35807.188287852, "timestamp": "2025-12-25T11:37:44.064878+00:00", "meta": {"OBJECT_NAME": "FENGYUN 4A", "OBJECT_ID": "2016-077A", "EPOCH": "2025-12-25T00:47:51.835776", "MEAN_MOTION": 1.0026324, "ECCENTRICITY": 0.0004499, "INCLINATION": 1.8783, "RA_OF_ASC_NODE": 82.2707, "ARG_OF_PERICENTER": 142.9856, "MEAN_ANOMALY": 4.1226, "EPHEMERIS_TYPE": 0, "CLASSIFICATION_TYPE": "U", "NORAD_CAT_ID": 41882, "ELEMENT_SET_NO": 999, "REV_AT_EPOCH": 3318, "BSTAR": 0, "MEAN_MOTION_DOT": -3.37e-06, "MEAN_MOTION_DDOT": 0}, "tle": {"line1": "1 41882U 16077A   25359.03323884 -.00000337  00000+0  00000+0 0  9991", "line2": "2 41882   1.8783  82.2707 0004499 142.9856   4.1226  1.00263240 33187"}}, "geometry": {"type": "Point", "coordinates": [32.29912663696236, -1.4336069133831357]}}, {"type": "Feature", "properties": {"norad_id": 41884, "name": "CYGFM05", "group": "weather", "lat": -21.674236607704803, "lon": 178.52026825012396, "alt_km": 421.38194614601343, "timestamp": "2025-12-25T11:37:44.064889+00:00", "meta": {"OBJECT_NAME": "CYGFM05", "OBJECT_ID": "2016-078A", "EPOCH": "2025-12-25T01:23:45.430944", "MEAN_MOTION": 15.4809271, "ECCENTRICITY": 0.001058, "INCLINATION": 34.9604, "RA_OF_ASC_NODE": 326.6388, "ARG_OF_PERICENTER": 289.3009, "MEAN_ANOMALY": 70.6568, "EPHEMERIS_TYPE": 0, "CLASSIFICATION_TYPE": "U", "NORAD_CAT_ID": 41884, "ELEMENT_SET_NO": 999, "REV_AT_EPOCH": 50167, "BSTAR": 0.00037646, "MEAN_MOTION_DOT": 0.00020396, "MEAN_MOTION_DDOT": 0}, "tle": {"line1": "1 41884U 16078A   25359.05816471  .00020396  00000+0  37646-3 0  9991", "line2": "2 41884  34.9604 326.6388 0010580 289.3009  70.6568 15.48092710501672"}}, "geometry": {"type": "Point", "coordinates": [178.52026825012396, -21.674236607704803]}}, {"type": "Feature", "properties": {"norad_id": 41885, "name": "CYGFM04", "group": "weather", "lat": -24.552393850616845, "lon": 159.13567723509243, "alt_km": 415.66030184892134, "timestamp": "2025-12-25T11:37:44.064900+00:00", "meta": {"OBJECT_NAME": "CYGFM04", "OBJECT_ID": "2016-078B", "EPOCH": "2025-12-25T02:55:55.495776", "MEAN_MOTION": 15.50887952, "ECCENTRICITY": 0.0009137, "INCLINATION": 34.935, "RA_OF_ASC_NODE": 300.6357, "ARG_OF_PERICENTER": 314.4705, "MEAN_ANOMALY": 45.5269, "EPHEMERIS_TYPE": 0, "CLASSIFICATION_TYPE": "U", "NORAD_CAT_ID": 41885, "ELEMENT_SET_NO": 999, "REV_AT_EPOCH": 50186, "BSTAR": 0.00039917, "MEAN_MOTION_DOT": 0.00023881, "MEAN_MOTION_DDOT": 0}, "tle": {"line1": "1 41885U 16078B   25359.12217009  .00023881  00000+0  39917-3 0  9997", "line2": "2 41885  34.9350 300.6357 0009137 314.4705  45.5269 15.50887952501861"}}, "geometry": {"type": "Point", "coordinates": [159.13567723509243, -24.552393850616845]}}, {"type": "Feature", "properties": {"norad_id": 41886, "name": "CYGFM02", "group": "weather", "lat": -28.35428016420376, "lon": -114.19888373430896, "alt_km": 404.6016804426554, "timestamp": "2025-12-25T11:37:44.064911+00:00", "meta": {"OBJECT_NAME": "CYGFM02", "OBJECT_ID": "2016-078C", "EPOCH": "2025-12-25T02:36:29.026656", "MEAN_MOTION": 15.52304448, "ECCENTRICITY": 0.001078, "INCLINATION": 34.9438, "RA_OF_ASC_NODE": 298.8882, "ARG_OF_PERICENTER": 315.8617, "MEAN_ANOMALY": 44.1245, "EPHEMERIS_TYPE": 0, "CLASSIFICATION_TYPE": "U", "NORAD_CAT_ID": 41886, "ELEMENT_SET_NO": 999, "REV_AT_EPOCH": 50199, "BSTAR": 0.00041088, "MEAN_MOTION_DOT": 0.00025893, "MEAN_MOTION_DDOT": 0}, "tle": {"line1": "1 41886U 16078C   25359.10866929  .00025893  00000+0  41088-3 0  9994", "line2": "2 41886  34.9438 298.8882 0010780 315.8617  44.1245 15.52304448501992"}}, "geometry": {"type": "Point", "coordinates": [-114.19888373430896, -28.35428016420376]}}, {"type": "Feature", "properties": {"norad_id": 41887, "name": "CYGFM01", "group": "weather", "lat": -32.18930140498158, "lon": -98.24762304414656, "alt_km": 415.4606418363719, "timestamp": "2025-12-25T11:37:44.064922+00:00", "meta": {"OBJECT_NAME": "CYGFM01", "OBJECT_ID": "2016-078D", "EPOCH": "2025-12-25T02:38:26.280096", "MEAN_MOTION": 15.48689153, "ECCENTRICITY": 0.0010368, "INCLINATION": 34.9435, "RA_OF_ASC_NODE": 328.5608, "ARG_OF_PERICENTER": 281.9479, "MEAN_ANOMALY": 78.0081, "EPHEMERIS_TYPE": 0, "CLASSIFICATION_TYPE": "U", "NORAD_CAT_ID": 41887, "ELEMENT_SET_NO": 999, "REV_AT_EPOCH": 50162, "BSTAR": 0.00040129, "MEAN_MOTION_DOT": 0.0002221, "MEAN_MOTION_DDOT": 0}, "tle": {"line1": "1 41887U 16078D   25359.11002639  .00022210  00000+0  40129-3 0  9991", "line2": "2 41887  34.9435 328.5608 0010368 281.9479  78.0081 15.48689153501626"}}, "geometry": {"type": "Point", "coordinates": [-98.24762304414656, -32.18930140498158]}}, {"type": "Feature", "properties": {"norad_id": 41888, "name": "CYGFM08", "group": "weather", "lat": 19.78868763179799, "lon": -20.034422947324003, "alt_km": 412.47875367270444, "timestamp": "2025-12-25T11:37:44.064933+00:00", "meta": {"OBJECT_NAME": "CYGFM08", "OBJECT_ID": "2016-078E", "EPOCH": "2025-12-25T02:11:54.201120", "MEAN_MOTION": 15.49927321, "ECCENTRICITY": 0.0011479, "INCLINATION": 34.9462, "RA_OF_ASC_NODE": 311.5279, "ARG_OF_PERICENTER": 305.4464, "MEAN_ANOMALY": 54.5187, "EPHEMERIS_TYPE": 0, "CLASSIFICATION_TYPE": "U", "NORAD_CAT_ID": 41888, "ELEMENT_SET_NO": 999, "REV_AT_EPOCH": 50185, "BSTAR": 0.00039057, "MEAN_MOTION_DOT": 0.00022597, "MEAN_MOTION_DDOT": 0}, "tle": {"line1": "1 41888U 16078E   25359.09159955  .00022597  00000+0  39057-3 0  9999", "line2": "2 41888  34.9462 311.5279 0011479 305.4464  54.5187 15.49927321501857"}}, "geometry": {"type": "Point", "coordinates": [-20.034422947324003, 19.78868763179799]}}, {"type": "Feature", "properties": {"norad_id": 41890, "name": "CYGFM07", "group": "weather", "lat": 26.4444492053773, "lon": -16.724932889226427, "alt_km": 409.7724814999174, "timestamp": "2025-12-25T11:37:44.064944+00:00", "meta": {"OBJECT_NAME": "CYGFM07", "OBJECT_ID": "2016-078G", "EPOCH": "2025-12-25T02:08:18.875040", "MEAN_MOTION": 15.50522977, "ECCENTRICITY": 0.0009394, "INCLINATION": 34.9478, "RA_OF_ASC_NODE": 300.4548, "ARG_OF_PERICENTER": 319.9198, "MEAN_ANOMALY": 40.083, "EPHEMERIS_TYPE": 0, "CLASSIFICATION_TYPE": "U", "NORAD_CAT_ID": 41890, "ELEMENT_SET_NO": 999, "REV_AT_EPOCH": 50187, "BSTAR": 0.00040404, "MEAN_MOTION_DOT": 0.00023861, "MEAN_MOTION_DDOT": 0}, "tle": {"line1": "1 41890U 16078G   25359.08910735  .00023861  00000+0  40404-3 0  9995", "line2": "2 41890  34.9478 300.4548 0009394 319.9198  40.0830 15.50522977501877"}}, "geometry": {"type": "Point", "coordinates": [-16.724932889226427, 26.4444492053773]}}, {"type": "Feature", "properties": {"norad_id": 41891, "name": "CYGFM03", "group": "weather", "lat": -30.01759461708999, "lon": 175.62636029303536, "alt_km": 415.11464090043864, "timestamp": "2025-12-25T11:37:44.064954+00:00", "meta": {"OBJECT_NAME": "CYGFM03", "OBJECT_ID": "2016-078H", "EPOCH": "2025-12-25T01:19:20.475840", "MEAN_MOTION": 15.504147, "ECCENTRICITY": 0.0009227, "INCLINATION": 34.9431, "RA_OF_ASC_NODE": 302.6047, "ARG_OF_PERICENTER": 306.7099, "MEAN_ANOMALY": 53.2776, "EPHEMERIS_TYPE": 0, "CLASSIFICATION_TYPE": "U", "NORAD_CAT_ID": 41891, "ELEMENT_SET_NO": 999, "REV_AT_EPOCH": 50184, "BSTAR": 0.00039736, "MEAN_MOTION_DOT": 0.00023373, "MEAN_MOTION_DDOT": 0}, "tle": {"line1": "1 41891U 16078H   25359.05509810  .00023373  00000+0  39736-3 0  9995", "line2": "2 41891  34.9431 302.6047 0009227 306.7099  53.2776 15.50414700501840"}}, "geometry": {"type": "Point", "coordinates": [175.62636029303536, -30.01759461708999]}}]}